NORAD_CAT_ID,OBJECT_NAME,OBJECT_TYPE,EPOCH,MEAN_MOTION,ECCENTRICITY,INCLINATION,RA_OF_ASC_NODE,ARG_OF_PERICENTER,MEAN_ANOMALY,BSTAR,MEAN_MOTION_DOT,MEAN_MOTION_DDOT,TLE_LINE0,TLE_LINE1,TLE_LINE2,SEMIMAJOR_AXIS,PERIOD,APOGEE,PERIGEE,DECAYED
51130.0,STARLINK-3395,PAYLOAD,2023-11-20 10:11:10,15.08850911,0.0001178,53.2168,111.2165,90.438,269.6747,0.00025034,3.7e-05,0.0,0 STARLINK-3395,1 51130U 22005AC  23324.42442210  .00003700  00000-0  25034-3 0  9999,2 51130  53.2168 111.2165 0001178  90.4380 269.6747 15.08850911102995,6917.847,95.437,540.527,538.897,0.0
51130.0,STARLINK-3395,PAYLOAD,2023-11-20 13:21:56,15.08855669,0.0001175,53.2166,110.622,88.7927,271.32,0.00029544,4.419e-05,0.0,0 STARLINK-3395,1 51130U 22005AC  23324.55689884  .00004419  00000-0  29544-3 0  9991,2 51130  53.2166 110.6220 0001175  88.7927 271.3200 15.08855669101899,6917.832,95.437,540.51,538.885,0.0
51130.0,STARLINK-3395,PAYLOAD,2023-11-20 19:43:28,15.08867024,0.0001192,53.2158,109.4321,84.9935,275.1193,0.00048196,7.396e-05,0.0,0 STARLINK-3395,1 51130U 22005AC  23324.82185756  .00007396  00000-0  48196-3 0  9991,2 51130  53.2158 109.4321 0001192  84.9935 275.1193 15.08867024101930,6917.798,95.436,540.487,538.838,0.0
51130.0,STARLINK-3395,PAYLOAD,2023-11-21 10:01:56,15.08856147,0.0001436,53.2162,106.7563,82.1016,278.0139,0.00017053,2.428e-05,0.0,0 STARLINK-3395,1 51130U 22005AC  23325.41801892  .00002428  00000-0  17053-3 0  9992,2 51130  53.2162 106.7563 0001436  82.1016 278.0139 15.08856147103145,6917.831,95.437,540.689,538.703,0.0
51130.0,STARLINK-3395,PAYLOAD,2023-11-21 13:12:42,15.0885578,0.0001182,53.216,106.1615,97.4677,262.645,0.00011652,1.568e-05,0.0,0 STARLINK-3395,1 51130U 22005AC  23325.55049675  .00001568  00000-0  11652-3 0  9993,2 51130  53.2160 106.1615 0001182  97.4677 262.6450 15.08855780102040,6917.832,95.437,540.515,538.879,0.0
51130.0,STARLINK-3395,PAYLOAD,2023-11-21 19:34:15,15.08859577,0.0001204,53.2161,104.972,92.6038,267.5092,0.00026752,3.975e-05,0.0,0 STARLINK-3395,1 51130U 22005AC  23325.81545328  .00003975  00000-0  26752-3 0  9999,2 51130  53.2161 104.9720 0001204  92.6038 267.5092 15.08859577102085,6917.821,95.436,540.518,538.853,0.0
51130.0,STARLINK-3395,PAYLOAD,2023-11-22 09:52:43,15.08846281,0.0001389,53.2172,102.2968,93.4223,266.6928,-9.2208e-05,-1.755e-05,0.0,0 STARLINK-3395,1 51130U 22005AC  23326.41161406 -.00001755  00000-0 -92208-4 0  9993,2 51130  53.2172 102.2968 0001389  93.4223 266.6928 15.08846281103291,6917.861,95.437,540.687,538.765,0.0
51130.0,STARLINK-3395,PAYLOAD,2023-11-22 14:38:52,15.08852414,0.0001494,53.2178,101.4044,90.1333,269.983,5.5534e-05,5.96e-06,0.0,0 STARLINK-3395,1 51130U 22005AC  23326.61033201  .00000596  00000-0  55534-4 0  9997,2 51130  53.2178 101.4044 0001494  90.1333 269.9830 15.08852414102209,6917.842,95.437,540.741,538.674,0.0
51130.0,STARLINK-3395,PAYLOAD,2023-11-23 14:29:40,15.08838002,0.0001512,53.2169,96.9421,110.129,249.9865,2.3475e-05,8.6e-07,0.0,0 STARLINK-3395,1 51130U 22005AC  23327.60393639  .00000086  00000-0  23475-4 0  9994,2 51130  53.2169  96.9421 0001512 110.1290 249.9865 15.08838002102351,6917.886,95.438,540.797,538.706,0.0
51130.0,STARLINK-3395,PAYLOAD,2023-11-24 11:09:41,15.08830706,0.0001684,53.2166,93.0755,113.7549,246.362,-6.7027e-05,-1.354e-05,0.0,0 STARLINK-3395,1 51130U 22005AC  23328.46506317 -.00001354  00000-0 -67027-4 0  9990,2 51130  53.2166  93.0755 0001684 113.7549 246.3620 15.08830706103604,6917.909,95.438,540.939,538.609,0.0
51130.0,STARLINK-3395,PAYLOAD,2023-11-24 14:20:27,15.08844244,0.0001608,53.2182,92.4821,111.7607,248.3557,-0.00017367,-3.051e-05,0.0,0 STARLINK-3395,1 51130U 22005AC  23328.59754445 -.00003051  00000-0 -17367-3 0  9998,2 51130  53.2182  92.4821 0001608 111.7607 248.3557 15.08844244102509,6917.867,95.437,540.845,538.62,0.0
51130.0,STARLINK-3395,PAYLOAD,2023-11-24 17:31:14,15.08835724,0.0001532,53.2176,91.8875,103.8535,256.2628,3.4669e-05,2.64e-06,0.0,0 STARLINK-3395,1 51130U 22005AC  23328.73002535  .00000264  00000-0  34669-4 0  9996,2 51130  53.2176  91.8875 0001532 103.8535 256.2628 15.08835724102524,6917.893,95.438,540.818,538.699,0.0
51130.0,STARLINK-3395,PAYLOAD,2023-11-25 14:11:13,15.08859977,0.0001745,53.2176,88.0229,138.6968,221.4157,-0.00011764,-2.161e-05,0.0,0 STARLINK-3395,1 51130U 22005AC  23329.59113413 -.00002161  00000-0 -11764-3 0  9999,2 51130  53.2176  88.0229 0001745 138.6968 221.4157 15.08859977102658,6917.819,95.436,540.891,538.477,0.0
51130.0,STARLINK-3395,PAYLOAD,2023-11-25 17:21:59,15.08861681,0.0001283,53.2168,87.4255,100.5509,259.5627,0.00029567,4.424e-05,0.0,0 STARLINK-3395,1 51130U 22005AC  23329.72360541  .00004424  00000-0  29567-3 0  9992,2 51130  53.2168  87.4255 0001283 100.5509 259.5627 15.08861681102678,6917.814,95.436,540.567,538.792,0.0
51130.0,STARLINK-3395,PAYLOAD,2023-11-26 12:26:37,15.08859644,0.0001171,53.2167,83.8572,96.8864,263.2261,0.00035404,5.354e-05,0.0,0 STARLINK-3395,1 51130U 22005AC  23330.51849050  .00005354  00000-0  35404-3 0  9998,2 51130  53.2167  83.8572 0001171  96.8864 263.2261 15.08859644103916,6917.82,95.436,540.495,538.875,0.0
51130.0,STARLINK-3395,PAYLOAD,2023-11-26 14:02:00,15.08855311,0.0001353,53.2154,83.563,68.7121,291.4016,0.00036168,5.475e-05,0.0,0 STARLINK-3395,1 51130U 22005AC  23330.58473308  .00005475  00000-0  36168-3 0  9996,2 51130  53.2154  83.5630 0001353  68.7121 291.4016 15.08855311102805,6917.834,95.437,540.635,538.763,0.0
51130.0,STARLINK-3395,PAYLOAD,2023-11-27 12:17:25,15.08832469,0.0001447,53.2177,79.3919,98.9672,261.1484,-0.00026866,-4.56e-05,0.0,0 STARLINK-3395,1 51130U 22005AC  23331.51210139 -.00004560  00000-0 -26866-3 0  9991,2 51130  53.2177  79.3919 0001447  98.9672 261.1484 15.08832469104065,6917.903,95.438,540.769,538.767,0.0
51130.0,STARLINK-3395,PAYLOAD,2023-11-27 13:52:48,15.08832404,0.0001354,53.2176,79.0951,95.6268,264.4878,-0.00023221,-3.981e-05,0.0,0 STARLINK-3395,1 51130U 22005AC  23331.57834212 -.00003981  00000-0 -23221-3 0  9999,2 51130  53.2176  79.0951 0001354  95.6268 264.4878 15.08832404102957,6917.904,95.438,540.705,538.832,0.0
51130.0,STARLINK-3395,PAYLOAD,2023-11-28 12:08:12,15.08848951,0.0001559,53.2188,74.9466,61.5875,298.5274,0.00026867,3.991e-05,0.0,0 STARLINK-3395,1 51130U 22005AC  23332.50570431  .00003991  00000-0  26867-3 0  9991,2 51130  53.2188  74.9466 0001559  61.5875 298.5274 15.08848951104211,6917.853,95.437,540.797,538.64,0.0
51130.0,STARLINK-3395,PAYLOAD,2023-11-29 11:58:59,15.08850162,0.0001332,53.2172,70.476,76.8951,283.219,0.0004157,6.336e-05,0.0,0 STARLINK-3395,1 51130U 22005AC  23333.49930532  .00006336  00000-0  41570-3 0  9996,2 51130  53.2172  70.4760 0001332  76.8951 283.2190 15.08850162104366,6917.849,95.437,540.636,538.793,0.0
51130.0,STARLINK-3395,PAYLOAD,2023-11-29 13:34:22,15.08857319,0.0001373,53.2178,70.1773,77.4382,282.6763,0.00057973,8.955e-05,0.0,0 STARLINK-3395,1 51130U 22005AC  23333.56554333  .00008955  00000-0  57973-3 0  9998,2 51130  53.2178  70.1773 0001373  77.4382 282.6763 15.08857319103250,6917.827,95.436,540.642,538.743,0.0
51130.0,STARLINK-3395,PAYLOAD,2023-11-30 11:49:46,15.0884325,0.000148,53.2167,66.0161,97.5949,262.5211,0.00035988,5.445e-05,0.0,0 STARLINK-3395,1 51130U 22005AC  23334.49290477  .00005445  00000-0  35988-3 0  9990,2 51130  53.2167  66.0161 0001480  97.5949 262.5211 15.08843250104518,6917.87,95.437,540.759,538.712,0.0
51130.0,STARLINK-3395,PAYLOAD,2023-12-01 11:40:34,15.08840325,0.0001526,53.2172,61.5555,100.463,259.6534,0.00040035,6.089e-05,0.0,0 STARLINK-3395,1 51130U 22005AC  23335.48650945  .00006089  00000-0  40035-3 0  9994,2 51130  53.2172  61.5555 0001526 100.4630 259.6534 15.08840325104664,6917.879,95.438,540.8,538.689,0.0
51130.0,STARLINK-3395,PAYLOAD,2023-12-01 13:15:57,15.0884617,0.0001426,53.217,61.2585,86.1849,273.9306,0.00062877,9.735e-05,0.0,0 STARLINK-3395,1 51130U 22005AC  23335.55274912  .00009735  00000-0  62877-3 0  9997,2 51130  53.2170  61.2585 0001426  86.1849 273.9306 15.08846170103550,6917.862,95.437,540.713,538.74,0.0
51130.0,STARLINK-3395,PAYLOAD,2023-12-02 13:06:44,15.08828861,0.0002894,53.2175,56.8015,32.3902,327.7267,-0.00062189,-0.0001017,0.0,0 STARLINK-3395,1 51130U 22005AC  23336.54635113 -.00010170  00000-0 -62189-3 0  9994,2 51130  53.2175  56.8015 0002894  32.3902 327.7267 15.08828861103704,6917.914,95.438,541.781,537.777,0.0
51130.0,STARLINK-3395,PAYLOAD,2023-12-03 12:57:33,15.08798893,0.000163,53.2178,52.3403,68.9369,291.1798,0.00028859,4.303e-05,0.0,0 STARLINK-3395,1 51130U 22005AC  23337.53997352  .00004303  00000-0  28859-3 0  9995,2 51130  53.2178  52.3403 0001630  68.9369 291.1798 15.08798893103858,6918.006,95.44,540.999,538.743,0.0
51130.0,STARLINK-3395,PAYLOAD,2023-12-04 11:12:58,15.08845225,0.0003101,53.2189,48.1777,39.8157,320.3062,0.0012326,0.00019387,0.0,0 STARLINK-3395,1 51130U 22005AC  23338.46734013  .00019387  00000-0  12326-2 0  9990,2 51130  53.2189  48.1777 0003101  39.8157 320.3062 15.08845225105116,6917.864,95.437,541.875,537.584,0.0
51130.0,STARLINK-3395,PAYLOAD,2023-12-05 11:03:43,15.08865979,0.0001569,53.2186,43.7182,81.7423,278.3747,0.00052642,8.106e-05,0.0,0 STARLINK-3395,1 51130U 22005AC  23339.46091872  .00008106  00000-0  52642-3 0  9993,2 51130  53.2186  43.7182 0001569  81.7423 278.3747 15.08865979104144,6917.801,95.436,540.751,538.581,0.0
51130.0,STARLINK-3395,PAYLOAD,2023-12-06 10:54:29,15.0885305,0.0001424,53.2187,39.2587,97.641,262.4744,-7.711e-06,-4.11e-06,0.0,0 STARLINK-3395,1 51130U 22005AC  23340.45451267 -.00000411  00000-0 -77110-5 0  9994,2 51130  53.2187  39.2587 0001424  97.6410 262.4744 15.08853050105415,6917.841,95.437,540.691,538.72,0.0
51130.0,STARLINK-3395,PAYLOAD,2023-12-06 14:05:16,15.08853351,0.000136,53.2181,38.6617,94.7165,265.3982,1.8248e-05,3e-08,0.0,0 STARLINK-3395,1 51130U 22005AC  23340.58699116  .00000003  00000-0  18248-4 0  9996,2 51130  53.2181  38.6617 0001360  94.7165 265.3982 15.08853351104318,6917.84,95.437,540.645,538.764,0.0
